[{"OBJECT_NAME":"ONEWEB-0655","OBJECT_ID":"2022-166AM","EPOCH":"2026-03-09T21:54:41.986080","MEAN_MOTION":13.21833375,"ECCENTRICITY":0.00014445,"INCLINATION":87.9163,"RA_OF_ASC_NODE":263.7862,"ARG_OF_PERICENTER":102.8713,"MEAN_ANOMALY":257.2582,"EPHEMERIS_TYPE":0,"CLASSIFICATION_TYPE":"U","NORAD_CAT_ID":54677,"ELEMENT_SET_NO":999,"REV_AT_EPOCH":15832,"BSTAR":-0.0030992987,"MEAN_MOTION_DOT":-1.267e-5,"MEAN_MOTION_DDOT":0},{"OBJECT_NAME":"ATLAS CENTAUR 2","OBJECT_ID":"1963-047A","EPOCH":"2026-03-09T09:44:46.728096","MEAN_MOTION":14.12066161,"ECCENTRICITY":0.05477336,"INCLINATION":30.3512,"RA_OF_ASC_NODE":197.227,"ARG_OF_PERICENTER":77.7875,"MEAN_ANOMALY":288.3499,"EPHEMERIS_TYPE":0,"CLASSIFICATION_TYPE":"U","NORAD_CAT_ID":694,"ELEMENT_SET_NO":999,"REV_AT_EPOCH":13158,"BSTAR":0.00021795899,"MEAN_MOTION_DOT":1.862e-5,"MEAN_MOTION_DDOT":0}]
